[{"OBJECT_NAME":"STARLINK-5760","OBJECT_ID":"2023-020Y","EPOCH":"2026-03-09T22:00:01.999584","MEAN_MOTION":15.12850663,"ECCENTRICITY":8.72e-5,"INCLINATION":42.9998,"RA_OF_ASC_NODE":2.8445,"ARG_OF_PERICENTER":255.2012,"MEAN_ANOMALY":334.0246,"EPHEMERIS_TYPE":0,"CLASSIFICATION_TYPE":"U","NORAD_CAT_ID":55591,"ELEMENT_SET_NO":999,"REV_AT_EPOCH":537,"BSTAR":0.0015897393,"MEAN_MOTION_DOT":0.00028334,"MEAN_MOTION_DDOT":0},{"OBJECT_NAME":"GRBBETA","OBJECT_ID":"2024-128C","EPOCH":"2026-03-09T16:58:19.607232","MEAN_MOTION":15.05794613,"ECCENTRICITY":0.0051339,"INCLINATION":61.9904,"RA_OF_ASC_NODE":205.0764,"ARG_OF_PERICENTER":114.1677,"MEAN_ANOMALY":246.4795,"EPHEMERIS_TYPE":0,"CLASSIFICATION_TYPE":"U","NORAD_CAT_ID":60237,"ELEMENT_SET_NO":999,"REV_AT_EPOCH":9128,"BSTAR":0.00046403869,"MEAN_MOTION_DOT":6.748e-5,"MEAN_MOTION_DDOT":0}]
